TIANMU-1 08             
1 57400U 23101B   26066.00237819  .00000346  00000+0  14775-4 0  9993
2 57400  97.2717 118.7901 0006380 134.2174 225.9592 15.29204229146020
STARLINK-32638          
1 62424U 24249R   26068.12936063  .00033550  00000+0  12227-2 0  9992
2 62424  43.0007 328.8669 0001733 264.6868  95.3785 15.27592589 67597
